NORAD_CAT_ID,OBJECT_NAME,OBJECT_TYPE,EPOCH,MEAN_MOTION,ECCENTRICITY,INCLINATION,RA_OF_ASC_NODE,ARG_OF_PERICENTER,MEAN_ANOMALY,BSTAR,MEAN_MOTION_DOT,MEAN_MOTION_DDOT,TLE_LINE0,TLE_LINE1,TLE_LINE2,SEMIMAJOR_AXIS,PERIOD,APOGEE,PERIGEE,DECAYED
54206.0,STARLINK-5264,PAYLOAD,2023-09-14 21:08:15,15.08834657,0.000118,53.2173,69.7803,85.2688,274.8439,-6.0072e-05,-1.244e-05,0.0,0 STARLINK-5264,1 54206U 22141BB  23257.88072982 -.00001244  00000-0 -60072-4 0  9992,2 54206  53.2173  69.7803 0001180  85.2688 274.8439 15.08834657 49591,6917.897,95.438,540.578,538.945,0.0
54206.0,STARLINK-5264,PAYLOAD,2023-09-15 11:26:43,15.08837969,0.0001151,53.2178,67.1042,84.3964,275.7159,-4.5449e-05,-1.011e-05,0.0,0 STARLINK-5264,1 54206U 22141BB  23258.47688757 -.00001011  00000-0 -45449-4 0  9994,2 54206  53.2178  67.1042 0001151  84.3964 275.7159 15.08837969 49686,6917.887,95.438,540.548,538.955,0.0
54206.0,STARLINK-5264,PAYLOAD,2023-09-15 17:48:15,15.08844442,0.000129,53.218,65.9151,88.5668,271.5472,1.3137e-07,-2.86e-06,0.0,0 STARLINK-5264,1 54206U 22141BB  23258.74184180 -.00000286  00000-0  13137-6 0  9998,2 54206  53.2180  65.9151 0001290  88.5668 271.5472 15.08844442 49953,6917.867,95.437,540.624,538.839,0.0
54206.0,STARLINK-5264,PAYLOAD,2023-09-16 11:17:30,15.08833196,0.0001262,53.2165,62.6424,91.3811,268.7326,2.6636e-05,1.36e-06,0.0,0 STARLINK-5264,1 54206U 22141BB  23259.47048738  .00000136  00000-0  26636-4 0  9996,2 54206  53.2165  62.6424 0001262  91.3811 268.7326 15.08833196 49831,6917.901,95.438,540.639,538.893,0.0
54206.0,STARLINK-5264,PAYLOAD,2023-09-16 17:39:02,15.08837037,0.0001168,53.2182,61.4543,91.2806,268.832,4.8495e-05,4.84e-06,0.0,0 STARLINK-5264,1 54206U 22141BB  23259.73544471  .00000484  00000-0  48495-4 0  9993,2 54206  53.2182  61.4543 0001168  91.2806 268.8320 15.08837037 50102,6917.889,95.438,540.562,538.946,0.0
54206.0,STARLINK-5264,PAYLOAD,2023-09-17 11:08:17,15.08835802,0.0001202,53.218,58.1839,91.0678,269.0452,-3.4791e-05,-8.41e-06,0.0,0 STARLINK-5264,1 54206U 22141BB  23260.46409026 -.00000841  00000-0 -34791-4 0  9994,2 54206  53.2180  58.1839 0001202  91.0678 269.0452 15.08835802 49986,6917.893,95.438,540.59,538.927,0.0
54206.0,STARLINK-5264,PAYLOAD,2023-09-18 10:59:06,15.08818687,0.0001197,53.218,53.7234,89.2602,270.8527,-0.00015028,-2.677e-05,0.0,0 STARLINK-5264,1 54206U 22141BB  23261.45771151 -.00002677  00000-0 -15028-3 0  9995,2 54206  53.2180  53.7234 0001197  89.2602 270.8527 15.08818687 50364,6917.946,95.439,540.639,538.982,0.0
54206.0,STARLINK-5264,PAYLOAD,2023-09-18 14:09:53,15.08805841,0.0001195,53.2181,53.129,89.7164,270.3965,-0.00024034,-4.107e-05,0.0,0 STARLINK-5264,1 54206U 22141BB  23261.59020402 -.00004107  00000-0 -24034-3 0  9993,2 54206  53.2181  53.1290 0001195  89.7164 270.3965 15.08805841 50153,6917.985,95.44,540.677,539.023,0.0
54206.0,STARLINK-5264,PAYLOAD,2023-09-18 17:20:39,15.08807771,0.0001179,53.2184,52.5342,93.8879,266.2248,-0.00022172,-3.812e-05,0.0,0 STARLINK-5264,1 54206U 22141BB  23261.72268455 -.00003812  00000-0 -22172-3 0  9993,2 54206  53.2184  52.5342 0001179  93.8879 266.2248 15.08807771 50408,6917.979,95.44,540.66,539.028,0.0
54206.0,STARLINK-5264,PAYLOAD,2023-09-19 10:49:51,15.08850185,0.0001231,53.2182,49.2627,99.9084,260.2047,0.00011658,1.568e-05,0.0,0 STARLINK-5264,1 54206U 22141BB  23262.45129279  .00001568  00000-0  11658-3 0  9995,2 54206  53.2182  49.2627 0001231  99.9084 260.2047 15.08850185 50519,6917.849,95.437,540.566,538.863,0.0
54206.0,STARLINK-5264,PAYLOAD,2023-09-19 17:11:23,15.08860238,0.0001402,53.2193,48.0743,100.8002,259.3148,0.00020032,2.903e-05,0.0,0 STARLINK-5264,1 54206U 22141BB  23262.71624193  .00002903  00000-0  20032-3 0  9999,2 54206  53.2193  48.0743 0001402 100.8002 259.3148 15.08860238 50554,6917.819,95.436,540.653,538.714,0.0
54206.0,STARLINK-5264,PAYLOAD,2023-09-20 09:05:16,15.08829477,0.0001349,53.2192,45.0998,93.5644,266.5502,0.0002541,3.757e-05,0.0,0 STARLINK-5264,1 54206U 22141BB  23263.37865902  .00003757  00000-0  25410-3 0  9990,2 54206  53.2192  45.0998 0001349  93.5644 266.5502 15.08829477 50657,6917.913,95.438,540.711,538.844,0.0
54206.0,STARLINK-5264,PAYLOAD,2023-09-20 13:51:25,15.08826821,0.0001227,53.219,44.2065,85.7387,274.3745,0.00020738,3.013e-05,0.0,0 STARLINK-5264,1 54206U 22141BB  23263.57738417  .00003013  00000-0  20738-3 0  9995,2 54206  53.2190  44.2065 0001227  85.7387 274.3745 15.08826821 50457,6917.921,95.438,540.635,538.937,0.0
54206.0,STARLINK-5264,PAYLOAD,2023-09-20 17:02:12,15.08826427,0.0001144,53.2189,43.6118,87.1317,272.9806,0.00019291,2.783e-05,0.0,0 STARLINK-5264,1 54206U 22141BB  23263.70986545  .00002783  00000-0  19291-3 0  9992,2 54206  53.2189  43.6118 0001144  87.1317 272.9806 15.08826427 50470,6917.922,95.438,540.578,538.995,0.0
54206.0,STARLINK-5264,PAYLOAD,2023-09-21 10:31:26,15.0884738,0.0001231,53.2189,40.3425,94.4744,265.6389,-0.00012234,-2.235e-05,0.0,0 STARLINK-5264,1 54206U 22141BB  23264.43850525 -.00002235  00000-0 -12234-3 0  9995,2 54206  53.2189  40.3425 0001231  94.4744 265.6389 15.08847380 50811,6917.858,95.437,540.574,538.871,0.0
54206.0,STARLINK-5264,PAYLOAD,2023-09-21 13:42:12,15.08852056,0.0001411,53.2197,39.7486,82.3097,277.8056,-0.00010025,-1.884e-05,0.0,0 STARLINK-5264,1 54206U 22141BB  23264.57098168 -.00001884  00000-0 -10025-3 0  9992,2 54206  53.2197  39.7486 0001411  82.3097 277.8056 15.08852056 50605,6917.844,95.437,540.685,538.732,0.0
54206.0,STARLINK-5264,PAYLOAD,2023-09-21 16:52:58,15.08858167,0.0001321,53.2192,39.1526,84.7728,275.3415,-0.00010109,-1.897e-05,0.0,0 STARLINK-5264,1 54206U 22141BB  23264.70345627 -.00001897  00000-0 -10109-3 0  9999,2 54206  53.2192  39.1526 0001321  84.7728 275.3415 15.08858167 50854,6917.825,95.436,540.604,538.776,0.0
54206.0,STARLINK-5264,PAYLOAD,2023-09-22 13:32:59,15.08843318,0.0001179,53.2184,35.2868,79.8055,280.307,7.139e-05,8.49e-06,0.0,0 STARLINK-5264,1 54206U 22141BB  23265.56457210  .00000849  00000-0  71390-4 0  9990,2 54206  53.2184  35.2868 0001179  79.8055 280.3070 15.08843318 50754,6917.87,95.437,540.551,538.92,0.0
54206.0,STARLINK-5264,PAYLOAD,2023-09-22 15:08:21,15.08849929,0.000124,53.218,34.9893,83.0267,277.0866,3.9214e-05,3.36e-06,0.0,0 STARLINK-5264,1 54206U 22141BB  23265.63080884  .00000336  00000-0  39214-4 0  9997,2 54206  53.2180  34.9893 0001240  83.0267 277.0866 15.08849929 50766,6917.85,95.437,540.573,538.857,0.0
54206.0,STARLINK-5264,PAYLOAD,2023-09-23 11:48:23,15.08844461,0.0001413,53.2184,31.1226,105.188,254.9268,-5.7354e-05,-1.201e-05,0.0,0 STARLINK-5264,1 54206U 22141BB  23266.49193309 -.00001201  00000-0 -57354-4 0  9998,2 54206  53.2184  31.1226 0001413 105.1880 254.9268 15.08844461 51125,6917.867,95.437,540.709,538.754,0.0
54206.0,STARLINK-5264,PAYLOAD,2023-09-23 13:23:45,15.08845845,0.000149,53.2193,30.8242,119.4673,240.6467,-5.3292e-05,-1.136e-05,0.0,0 STARLINK-5264,1 54206U 22141BB  23266.55817090 -.00001136  00000-0 -53292-4 0  9999,2 54206  53.2193  30.8242 0001490 119.4673 240.6467 15.08845845 50907,6917.863,95.437,540.758,538.697,0.0
54206.0,STARLINK-5264,PAYLOAD,2023-09-24 13:14:33,15.08842205,0.0001232,53.2203,26.368,87.1245,272.9888,-3.4242e-05,-8.33e-06,0.0,0 STARLINK-5264,1 54206U 22141BB  23267.55177178 -.00000833  00000-0 -34242-4 0  9993,2 54206  53.2203  26.3680 0001232  87.1245 272.9888 15.08842205 51054,6917.874,95.437,540.591,538.886,0.0
54206.0,STARLINK-5264,PAYLOAD,2023-09-25 08:19:11,15.08820473,0.0001388,53.2209,22.8009,91.1803,268.9348,0.00019946,2.886e-05,0.0,0 STARLINK-5264,1 54206U 22141BB  23268.34665706  .00002886  00000-0  19946-3 0  9991,2 54206  53.2209  22.8009 0001388  91.1803 268.9348 15.08820473 51401,6917.94,95.439,540.765,538.845,0.0
54206.0,STARLINK-5264,PAYLOAD,2023-09-25 14:40:42,15.08848114,0.0001325,53.2188,21.6097,91.1224,268.992,0.00013064,1.792e-05,0.0,0 STARLINK-5264,1 54206U 22141BB  23268.61160277  .00001792  00000-0  13064-3 0  9994,2 54206  53.2188  21.6097 0001325  91.1224 268.9920 15.08848114 51216,6917.856,95.437,540.637,538.804,0.0
54206.0,STARLINK-5264,PAYLOAD,2023-09-26 11:20:45,15.08826613,0.0001503,53.2195,17.7451,72.0234,288.0922,-8.1576e-05,-1.586e-05,0.0,0 STARLINK-5264,1 54206U 22141BB  23269.47274829 -.00001586  00000-0 -81576-4 0  9995,2 54206  53.2195  17.7451 0001503  72.0234 288.0922 15.08826613 51575,6917.921,95.438,540.826,538.747,0.0
54206.0,STARLINK-5264,PAYLOAD,2023-09-26 12:56:08,15.08826841,0.0001489,53.2189,17.4473,77.9168,282.1991,-8.2819e-05,-1.605e-05,0.0,0 STARLINK-5264,1 54206U 22141BB  23269.53898842 -.00001605  00000-0 -82819-4 0  9992,2 54206  53.2189  17.4473 0001489  77.9168 282.1991 15.08826841 51352,6917.921,95.438,540.816,538.756,0.0
54206.0,STARLINK-5264,PAYLOAD,2023-09-27 06:25:22,15.08841059,0.0001521,53.2189,14.1733,90.8807,269.2359,-7.1967e-05,-1.433e-05,0.0,0 STARLINK-5264,1 54206U 22141BB  23270.26762304 -.00001433  00000-0 -71967-4 0  9998,2 54206  53.2189  14.1733 0001521  90.8807 269.2359 15.08841059 51695,6917.877,95.437,540.794,538.69,0.0
54206.0,STARLINK-5264,PAYLOAD,2023-09-27 12:46:54,15.08844357,0.00018,53.2198,12.9892,44.9795,315.1343,2.6401e-05,1.32e-06,0.0,0 STARLINK-5264,1 54206U 22141BB  23270.53257786  .00000132  00000-0  26401-4 0  9997,2 54206  53.2198  12.9892 0001800  44.9795 315.1343 15.08844357 51501,6917.867,95.437,540.977,538.487,0.0
54206.0,STARLINK-5264,PAYLOAD,2023-09-27 14:22:16,15.08857622,0.0001406,53.2184,12.6876,74.4686,285.6461,5.3699e-05,5.67e-06,0.0,0 STARLINK-5264,1 54206U 22141BB  23270.59880613  .00000567  00000-0  53699-4 0  9995,2 54206  53.2184  12.6876 0001406  74.4686 285.6461 15.08857622 51741,6917.827,95.436,540.664,538.719,0.0
54206.0,STARLINK-5264,PAYLOAD,2023-09-28 12:37:42,15.08833287,0.0001548,53.2184,8.5274,68.5211,291.5946,3.7147e-05,3.03e-06,0.0,0 STARLINK-5264,1 54206U 22141BB  23271.52618548  .00000303  00000-0  37147-4 0  9993,2 54206  53.2184   8.5274 0001548  68.5211 291.5946 15.08833287 51882,6917.901,95.438,540.837,538.695,0.0
